1 21091U 91007C   18204.67833785 +.00000067 +00000-0 +50549-4 0  9992
2 21091 082.9307 282.7253 0026349 295.0328 217.4797 13.79725505381100
1 21115U 91009M   18204.36348385 -.00000119 +00000-0 -10077-2 0  9994
2 21115 074.0395 298.1887 0182091 158.3570 275.3972 12.16565692218170
1 21136U 91009N   18204.88551323 -.00000103 +00000-0 -10214-2 0  9998
2 21136 073.9995 358.9904 0288905 009.4827 144.6592 11.97031383198888
1 21155U 91009S   18204.10833880 +.00000008 +00000-0 +19881-3 0  9997
2 21155 073.9196 220.9964 0144392 237.8347 197.3772 12.30671715232736
1 21159U 91009W   18204.66416510 -.00000000 +00000-0 +13277-3 0  9995
2 21159 073.9418 275.5551 0144618 265.2048 251.3682 12.29018694228486
1 21163U 91009AA  18204.54768733 -.00000005 +00000-0 +88641-4 0  9997
2 21163 073.9416 245.8261 0138672 225.9734 206.7920 12.30663514229776
1 21167U 91009AE  18204.81908659 +.00000003 +00000-0 +15754-3 0  9995
2 21167 073.9140 248.2767 0137776 284.0745 196.9367 12.29284400228803
1 21168U 91009AF  18204.60884358 -.00000025 +00000-0 -77091-4 0  9991
2 21168 073.8961 271.2325 0199211 346.8240 082.0938 12.27685230227317
1 21174U 91009AM  18202.93375833 +.00000057 +00000-0 +79346-3 0  9992
2 21174 074.0918 012.4243 0275948 221.5820 296.3047 11.99213653198343
1 21175U 91009AN  18204.91214214 -.00000010 +00000-0 +50189-4 0  9993
2 21175 073.9362 280.6564 0147425 283.2676 195.8812 12.28548201228050
1 21180U 91009AT  18204.01723156 +.00000115 +00000-0 +11042-2 0  9998
2 21180 074.0633 039.3636 0107269 167.3041 313.8667 12.28529383226191
1 21181U 91009AU  18203.39574344 +.00000050 +00000-0 +56303-3 0  9990
2 21181 073.9484 088.0309 0207469 095.7229 018.8274 12.22353269221336
1 21182U 91009AV  18204.82083397 +.00000060 +00000-0 +67001-3 0  9991
2 21182 073.9973 151.1459 0154228 077.7392 310.0498 12.21623288220506
1 21186U 91009AZ  18204.05155910 +.00000115 +00000-0 +13165-2 0  9993
2 21186 074.1033 070.5919 0147823 213.0887 301.1682 12.12923661212035
1 21187U 91009BA  18201.23740292  .00000279  00000-0  30790-2 0  9998
2 21187  74.2440 265.2090 0177364 171.4237 250.4362 12.09224725208252
1 21208U 91009BB  18204.86410021 -.00000017 +00000-0 -14391-4 0  9991
2 21208 073.9564 257.7822 0148888 213.4912 263.2532 12.30744869226839
1 21211U 91009BE  18204.89698010 -.00000190 +00000-0 -16124-2 0  9990
2 21211 074.0958 276.0337 0201254 028.6277 089.1362 12.19338544215463
1 21234U 91009CT  18204.86662220 -.00000024 +00000-0 -75685-4 0  9991
2 21234 074.0073 258.1768 0126049 113.3117 001.0771 12.32458775231388
1 21251U 91009BJ  18204.24439590 +.00000304 +00000-0 +24288-2 0  9994
2 21251 073.9541 136.6825 0150963 070.8126 079.2393 12.35817201234744
1 21252U 91009BK  18204.87434910 +.00000012 +00000-0 +24017-3 0  9992
2 21252 074.1051 157.9922 0124757 233.6559 155.0068 12.24655819223731
1 21256U 91009BN  18204.36176536 -.00000074 +00000-0 -86246-3 0  9999
2 21256 073.9775 287.0915 0247117 051.7293 017.4031 11.83963916179984
1 21257U 91007D   18204.76267296 +.00000061 +00000-0 +45754-4 0  9990
2 21257 082.9210 304.9064 0033326 015.4545 138.8735 13.76952719376942
1 21332U 91009CP  18203.69023022 +.00000583 +00000-0 +57668-2 0  9998
2 21332 074.1963 096.7938 0156985 060.1822 329.2699 12.16885082168420
1 21401U 91009BQ  18204.82059123 +.00000065 +00000-0 +76443-3 0  9990
2 21401 074.1353 004.4413 0145050 071.2386 356.6085 12.16750433215701
1 21402U 91009BR  18203.54529400  .00000049  00000-0  60528-3 0  9998
2 21402  74.0251 249.6423 0135279 142.6640  11.3960 12.18209900217417
1 21403U 91009BS  18204.49430678 +.00000042 +00000-0 +46845-3 0  9991
2 21403 073.9330 230.3671 0135421 224.1405 257.4464 12.31356252229615
1 21404U 91009BT  18204.89124588 +.00000042 +00000-0 +40607-3 0  9996
2 21404 073.9603 354.6909 0184337 249.8270 281.1956 12.41204600238864
1 21406U 91009BV  18204.97422701 +.00000059 +00000-0 +60928-3 0  9991
2 21406 073.9119 212.6775 0135574 245.1885 142.5151 12.31358630225418
1 21407U 91009BW  18204.25066157 -.00000043 +00000-0 -20456-3 0  9999
2 21407 073.8512 139.2653 0175612 279.2164 151.5114 12.32176670231014
1 21408U 91009BX  18204.30302628 +.00000076 +00000-0 +86949-3 0  9995
2 21408 074.0281 306.8278 0199935 202.5290 190.0292 12.15626952214693
1 21420U 91041C   18204.64888503 +.00000151 +00000-0 +55481-4 0  9995
2 21420 074.0674 267.8165 0006008 234.4194 280.9295 14.40638219419721
1 21529U 91045C   18204.95468588 +.00000144 +00000-0 +45669-4 0  9999
2 21529 089.5722 076.2169 0056277 045.6902 314.8890 14.34246769411597
1 21532U 91045D   18204.70099802 +.00000157 +00000-0 +51676-4 0  9994
2 21532 089.5218 000.3129 0069304 144.6212 275.0072 14.32152970409959
1 21691U 91045E   18204.79231222 +.00000193 +00000-0 +48896-4 0  9993
2 21691 089.8175 325.2531 0013609 262.9111 250.6374 14.47625180422633
1 21711U 91041D   18204.15740487 +.00000153 +00000-0 +50512-4 0  9994
2 21711 074.0205 090.4624 0013502 216.8217 307.8888 14.45937825423206
1 21712U 91045F   18203.98146051 +.00000121 +00000-0 +45326-4 0  9998
2 21712 089.2764 112.5880 0134670 318.9862 158.9956 14.21559763399438
1 21724U 91009BZ  18204.83136170 -.00000002 +00000-0 +10797-3 0  9999
2 21724 073.9778 155.5575 0206661 110.7718 277.2843 12.20368265194594
1 21750U 91009CQ  18204.08591878 +.00000268 +00000-0 +24106-2 0  9996
2 21750 074.0742 072.8073 0107554 231.8770 284.8750 12.28477376223422
1 21826U 91086C   18204.88391201 +.00003825 +00000-0 +33827-3 0  9994
2 21826 082.5754 009.2754 0709879 226.6196 127.3732 13.90898073247478
1 21827U 91086D   18204.96387123 +.00002133 +00000-0 +16409-3 0  9990
2 21827 082.4431 207.1492 0646914 143.5734 240.0070 14.06985449251096
1 21836U 91082E   18204.70810841 +.00001685 +00000-0 +28661-3 0  9990
2 21836 098.7694 243.2590 0002475 208.0971 291.8905 14.70572342249100
1 21861U 91009CA  18204.40909816 +.00000028 +00000-0 +37924-3 0  9997
2 21861 074.0251 099.3532 0135919 324.2392 155.8070 12.24692936223628
1 21905U 91086F   18204.79285405 +.00004338 +00000-0 +45829-3 0  9995
2 21905 082.5015 098.5228 0800264 044.0081 322.2005 13.67589521234933
1 21918U 91009CB  18204.45655865 +.00000052 +00000-0 +61608-3 0  9990
2 21918 074.0771 212.1046 0125626 354.0052 123.4980 12.21846309219719
1 21919U 91009CC  18202.45550906  .00000044  00000-0  79728-3 0  9992
2 21919  74.0624 192.5141 0357361 180.5850 338.5128 11.74813121170795
1 21936U 91009CD  18204.69812703 +.00000298 +00000-0 +34570-2 0  9991
2 21936 074.0657 313.3350 0261277 203.7770 228.4358 12.00982577162294
1 21943U 91009CE  18204.36985125 +.00000029 +00000-0 +41788-3 0  9994
2 21943 073.9532 164.2875 0137158 183.3504 301.7227 12.19193012218497
1 21955U 91009CF  18203.84860451 +.00000350 +00000-0 +39139-2 0  9996
2 21955 074.3110 335.5632 0163147 173.8461 345.2462 12.08023143206692
1 21958U 91009CG  18204.51447166 -.00000046 +00000-0 -29632-3 0  9990
2 21958 073.9619 232.9170 0133871 247.9984 268.6114 12.16712519215788
1 21959U 91009CH  18204.38491368 +.00000079 +00000-0 +90471-3 0  9992
2 21959 073.9659 201.6883 0129348 203.8728 283.3464 12.18577759216823
